LYNK TOWER 4            
1 55034U 23001AB  26068.67743801  .00009160  00000+0  30014-3 0  9997
2 55034  97.3324 128.5940 0010321 112.3386 247.8950 15.31819885176588
STARLINK-36130          
1 66931U 25286G   26068.07736002  .00037248  00000+0  12635-2 0  9997
2 66931  53.1622   1.2527 0000666 111.3589 248.7483 15.30197984 15323
